CORVUS BC4              
1 43767U 18099K   26068.65923737  .00005714  00000+0  33980-3 0  9990
2 43767  97.4206 114.5457 0008046 356.5821   3.5354 15.11615710397368
STARLINK-3850           
1 52342U 22045M   26068.65950166 -.00004197  00000+0 -24579-3 0  9991
2 52342  53.2169 199.3760 0000989  82.7055 277.4050 15.08840838215774
