[{"OBJECT_NAME":"CORVUS BC4","OBJECT_ID":"2018-099K","EPOCH":"2026-03-09T15:49:18.108768","MEAN_MOTION":15.1161571,"ECCENTRICITY":0.00080458,"INCLINATION":97.4206,"RA_OF_ASC_NODE":114.5457,"ARG_OF_PERICENTER":356.5821,"MEAN_ANOMALY":3.5354,"EPHEMERIS_TYPE":0,"CLASSIFICATION_TYPE":"U","NORAD_CAT_ID":43767,"ELEMENT_SET_NO":999,"REV_AT_EPOCH":39736,"BSTAR":0.00033979895,"MEAN_MOTION_DOT":5.714e-5,"MEAN_MOTION_DDOT":0},{"OBJECT_NAME":"STARLINK-3850","OBJECT_ID":"2022-045M","EPOCH":"2026-03-09T15:49:40.943424","MEAN_MOTION":15.08840838,"ECCENTRICITY":9.886e-5,"INCLINATION":53.2169,"RA_OF_ASC_NODE":199.376,"ARG_OF_PERICENTER":82.7055,"MEAN_ANOMALY":277.405,"EPHEMERIS_TYPE":0,"CLASSIFICATION_TYPE":"U","NORAD_CAT_ID":52342,"ELEMENT_SET_NO":999,"REV_AT_EPOCH":21577,"BSTAR":-0.00024579056,"MEAN_MOTION_DOT":-4.197e-5,"MEAN_MOTION_DDOT":0}]
